{"fetched_at":"2026-07-15T06:35:32.501Z","source":"https://celestrak.org/NORAD/elements/gp.php?GROUP=oneweb&FORMAT=JSON","constellation":"oneweb","records":[{"OBJECT_NAME":"ONEWEB-0207","OBJECT_ID":"2021-031AJ","EPOCH":"2026-07-14T19:24:52.079040","CLASSIFICATION_TYPE":"U","MEAN_MOTION":13.14501652,"ECCENTRICITY":0.00020358,"INCLINATION":87.8974,"RA_OF_ASC_NODE":284.1969,"ARG_OF_PERICENTER":92.2125,"MEAN_ANOMALY":267.9238,"EPHEMERIS_TYPE":0,"NORAD_CAT_ID":48242,"ELEMENT_SET_NO":999,"REV_AT_EPOCH":25192,"BSTAR":-0.00043561954,"MEAN_MOTION_DOT":-0.00000149,"MEAN_MOTION_DDOT":0},{"OBJECT_NAME":"ONEWEB-0208","OBJECT_ID":"2021-031AK","EPOCH":"2026-07-14T18:58:37.808832","CLASSIFICATION_TYPE":"U","MEAN_MOTION":13.14502063,"ECCENTRICITY":0.00023688,"INCLINATION":87.8972,"RA_OF_ASC_NODE":284.2062,"ARG_OF_PERICENTER":102.7594,"MEAN_ANOMALY":257.3801,"EPHEMERIS_TYPE":0,"NORAD_CAT_ID":48243,"ELEMENT_SET_NO":999,"REV_AT_EPOCH":25193,"BSTAR":0.000099847452,"MEAN_MOTION_DOT":5e-7,"MEAN_MOTION_DDOT":0},{"OBJECT_NAME":"ONEWEB-0200","OBJECT_ID":"2021-031AL","EPOCH":"2026-07-14T18:06:07.041888","CLASSIFICATION_TYPE":"U","MEAN_MOTION":13.14502365,"ECCENTRICITY":0.00021208,"INCLINATION":87.898,"RA_OF_ASC_NODE":284.2026,"ARG_OF_PERICENTER":98.6608,"MEAN_ANOMALY":261.4762,"EPHEMERIS_TYPE":0,"NORAD_CAT_ID":48244,"ELEMENT_SET_NO":999,"REV_AT_EPOCH":25185,"BSTAR":-0.00013434114,"MEAN_MOTION_DOT":-3.7e-7,"MEAN_MOTION_DDOT":0},{"OBJECT_NAME":"ONEWEB-0217","OBJECT_ID":"2021-031AM","EPOCH":"2026-07-14T18:28:56.915616","CLASSIFICATION_TYPE":"U","MEAN_MOTION":13.14502504,"ECCENTRICITY":0.00023994,"INCLINATION":87.8977,"RA_OF_ASC_NODE":284.2035,"ARG_OF_PERICENTER":103.0708,"MEAN_ANOMALY":257.0689,"EPHEMERIS_TYPE":0,"NORAD_CAT_ID":48245,"ELEMENT_SET_NO":999,"REV_AT_EPOCH":25180,"BSTAR":0.00059146173,"MEAN_MOTION_DOT":0.00000232,"MEAN_MOTION_DDOT":0},{"OBJECT_NAME":"ONEWEB-0211","OBJECT_ID":"2021-045A","EPOCH":"2026-07-14T17:02:36.078720","CLASSIFICATION_TYPE":"U","MEAN_MOTION":13.16197991,"ECCENTRICITY":0.00026634,"INCLINATION":87.899,"RA_OF_ASC_NODE":253.5926,"ARG_OF_PERICENTER":106.3852,"MEAN_ANOMALY":253.7572,"EPHEMERIS_TYPE":0,"NORAD_CAT_ID":48767,"ELEMENT_SET_NO":999,"REV_AT_EPOCH":24806,"BSTAR":0.000080225293,"MEAN_MOTION_DOT":4.3e-7,"MEAN_MOTION_DDOT":0},{"OBJECT_NAME":"ONEWEB-0223","OBJECT_ID":"2021-045B","EPOCH":"2026-07-14T15:35:57.089184","CLASSIFICATION_TYPE":"U","MEAN_MOTION":13.15547966,"ECCENTRICITY":0.00023184,"INCLINATION":87.8993,"RA_OF_ASC_NODE":253.7206,"ARG_OF_PERICENTER":107.0577,"MEAN_ANOMALY":253.0808,"EPHEMERIS_TYPE":0,"NORAD_CAT_ID":48768,"ELEMENT_SET_NO":999,"REV_AT_EPOCH":24801,"BSTAR":-0.00047093705,"MEAN_MOTION_DOT":-0.00000164,"MEAN_MOTION_DDOT":0},{"OBJECT_NAME":"ONEWEB-0230","OBJECT_ID":"2021-045C","EPOCH":"2026-07-14T16:44:24.440640","CLASSIFICATION_TYPE":"U","MEAN_MOTION":13.15548019,"ECCENTRICITY":0.00019231,"INCLINATION":87.8986,"RA_OF_ASC_NODE":253.722,"ARG_OF_PERICENTER":97.4659,"MEAN_ANOMALY":262.669,"EPHEMERIS_TYPE":0,"NORAD_CAT_ID":48769,"ELEMENT_SET_NO":999,"REV_AT_EPOCH":24828,"BSTAR":0.00033506879,"MEAN_MOTION_DOT":0.00000139,"MEAN_MOTION_DDOT":0},{"OBJECT_NAME":"ONEWEB-0237","OBJECT_ID":"2021-045D","EPOCH":"2026-07-14T16:28:25.769568","CLASSIFICATION_TYPE":"U","MEAN_MOTION":13.15548093,"ECCENTRICITY":0.0002395,"INCLINATION":87.898,"RA_OF_ASC_NODE":253.7264,"ARG_OF_PERICENTER":97.5713,"MEAN_ANOMALY":262.569,"EPHEMERIS_TYPE":0,"NORAD_CAT_ID":48770,"ELEMENT_SET_NO":999,"REV_AT_EPOCH":24800,"BSTAR":0.00039239877,"MEAN_MOTION_DOT":0.00000161,"MEAN_MOTION_DDOT":0},{"OBJECT_NAME":"ONEWEB-0235","OBJECT_ID":"2021-045E","EPOCH":"2026-07-14T15:51:54.008928","CLASSIFICATION_TYPE":"U","MEAN_MOTION":13.1555002,"ECCENTRICITY":0.00022456,"INCLINATION":87.8993,"RA_OF_ASC_NODE":253.7196,"ARG_OF_PERICENTER":108.9465,"MEAN_ANOMALY":251.1909,"EPHEMERIS_TYPE":0,"NORAD_CAT_ID":48771,"ELEMENT_SET_NO":999,"REV_AT_EPOCH":24799,"BSTAR":-0.00014385632,"MEAN_MOTION_DOT":-4.1e-7,"MEAN_MOTION_DDOT":0},{"OBJECT_NAME":"ONEWEB-0242","OBJECT_ID":"2021-045F","EPOCH":"2026-07-14T15:42:47.806272","CLASSIFICATION_TYPE":"U","MEAN_MOTION":13.15548604,"ECCENTRICITY":0.00019574,"INCLINATION":87.8996,"RA_OF_ASC_NODE":253.7179,"ARG_OF_PERICENTER":102.7259,"MEAN_ANOMALY":257.409,"EPHEMERIS_TYPE":0,"NORAD_CAT_ID":48772,"ELEMENT_SET_NO":999,"REV_AT_EPOCH":24803,"BSTAR":-0.00048483915,"MEAN_MOTION_DOT":-0.0000017,"MEAN_MOTION_DDOT":0},{"OBJECT_NAME":"ONEWEB-0241","OBJECT_ID":"2021-045G","EPOCH":"2026-07-14T17:14:03.747552","CLASSIFICATION_TYPE":"U","MEAN_MOTION":13.15537921,"ECCENTRICITY":0.00023861,"INCLINATION":87.8986,"RA_OF_ASC_NODE":253.7204,"ARG_OF_PERICENTER":105.3687,"MEAN_ANOMALY":254.7707,"EPHEMERIS_TYPE":0,"NORAD_CAT_ID":48773,"ELEMENT_SET_NO":999,"REV_AT_EPOCH":24795,"BSTAR":-0.00036597473,"MEAN_MOTION_DOT":-0.00000125,"MEAN_MOTION_DDOT":0},{"OBJECT_NAME":"ONEWEB-0243","OBJECT_ID":"2021-045H","EPOCH":"2026-07-14T16:10:09.666336","CLASSIFICATION_TYPE":"U","MEAN_MOTION":13.15550323,"ECCENTRICITY":0.00018502,"INCLINATION":87.8981,"RA_OF_ASC_NODE":253.742,"ARG_OF_PERICENTER":112.7369,"MEAN_ANOMALY":247.3958,"EPHEMERIS_TYPE":0,"NORAD_CAT_ID":48774,"ELEMENT_SET_NO":999,"REV_AT_EPOCH":24797,"BSTAR":0.00016014327,"MEAN_MOTION_DOT":7.3e-7,"MEAN_MOTION_DDOT":0},{"OBJECT_NAME":"ONEWEB-0222","OBJECT_ID":"2021-045J","EPOCH":"2026-07-14T15:46:12.569952","CLASSIFICATION_TYPE":"U","MEAN_MOTION":13.15546996,"ECCENTRICITY":0.00022551,"INCLINATION":87.8992,"RA_OF_ASC_NODE":253.7146,"ARG_OF_PERICENTER":102.8575,"MEAN_ANOMALY":257.2807,"EPHEMERIS_TYPE":0,"NORAD_CAT_ID":48775,"ELEMENT_SET_NO":999,"REV_AT_EPOCH":24801,"BSTAR":-0.00024675236,"MEAN_MOTION_DOT":-8e-7,"MEAN_MOTION_DDOT":0},{"OBJECT_NAME":"ONEWEB-0244","OBJECT_ID":"2021-045K","EPOCH":"2026-07-14T16:23:52.285920","CLASSIFICATION_TYPE":"U","MEAN_MOTION":13.15548018,"ECCENTRICITY":0.00020701,"INCLINATION":87.8996,"RA_OF_ASC_NODE":253.7061,"ARG_OF_PERICENTER":102.2017,"MEAN_ANOMALY":257.9346,"EPHEMERIS_TYPE":0,"NORAD_CAT_ID":48776,"ELEMENT_SET_NO":999,"REV_AT_EPOCH":24858,"BSTAR":0.00030050439,"MEAN_MOTION_DOT":0.00000126,"MEAN_MOTION_DDOT":0},{"OBJECT_NAME":"ONEWEB-0247","OBJECT_ID":"2021-045L","EPOCH":"2026-07-14T16:19:17.058720","CLASSIFICATION_TYPE":"U","MEAN_MOTION":13.15558456,"ECCENTRICITY":0.00021103,"INCLINATION":87.8985,"RA_OF_ASC_NODE":253.7347,"ARG_OF_PERICENTER":119.5205,"MEAN_ANOMALY":240.6136,"EPHEMERIS_TYPE":0,"NORAD_CAT_ID":48777,"ELEMENT_SET_NO":999,"REV_AT_EPOCH":24802,"BSTAR":0.0033599512,"MEAN_MOTION_DOT":0.00001278,"MEAN_MOTION_DDOT":0},{"OBJECT_NAME":"ONEWEB-0245","OBJECT_ID":"2021-045M","EPOCH":"2026-07-14T16:12:26.631936","CLASSIFICATION_TYPE":"U","MEAN_MOTION":13.15548602,"ECCENTRICITY":0.00022613,"INCLINATION":87.8991,"RA_OF_ASC_NODE":253.718,"ARG_OF_PERICENTER":101.3543,"MEAN_ANOMALY":258.7842,"EPHEMERIS_TYPE":0,"NORAD_CAT_ID":48778,"ELEMENT_SET_NO":999,"REV_AT_EPOCH":24799,"BSTAR":0.00031509213,"MEAN_MOTION_DOT":0.00000131,"MEAN_MOTION_DDOT":0}]}
